[{"OBJECT_NAME":"KL-ALPHA B","OBJECT_ID":"2019-077B","EPOCH":"2026-03-09T22:53:20.656320","MEAN_MOTION":13.55991854,"ECCENTRICITY":0.00283835,"INCLINATION":88.9031,"RA_OF_ASC_NODE":231.1581,"ARG_OF_PERICENTER":80.1887,"MEAN_ANOMALY":280.247,"EPHEMERIS_TYPE":0,"CLASSIFICATION_TYPE":"U","NORAD_CAT_ID":44786,"ELEMENT_SET_NO":999,"REV_AT_EPOCH":31173,"BSTAR":0.00014525355,"MEAN_MOTION_DOT":1.14e-6,"MEAN_MOTION_DDOT":0},{"OBJECT_NAME":"THORAD AGENA D R\/B","OBJECT_ID":"1969-037C","EPOCH":"2026-03-09T18:53:53.657376","MEAN_MOTION":13.42143278,"ECCENTRICITY":0.00386182,"INCLINATION":99.9081,"RA_OF_ASC_NODE":339.5705,"ARG_OF_PERICENTER":308.5906,"MEAN_ANOMALY":119.3832,"EPHEMERIS_TYPE":0,"CLASSIFICATION_TYPE":"U","NORAD_CAT_ID":3892,"ELEMENT_SET_NO":999,"REV_AT_EPOCH":78610,"BSTAR":9.3941762e-5,"MEAN_MOTION_DOT":9.0e-8,"MEAN_MOTION_DDOT":0}]
